[{"OBJECT_NAME":"GALAXY 36 (G-36)","OBJECT_ID":"2022-170B","EPOCH":"2023-04-27T00:26:33.831168","MEAN_MOTION":1.0027187,"ECCENTRICITY":0.0002952,"INCLINATION":0.0167,"RA_OF_ASC_NODE":247.212,"ARG_OF_PERICENTER":184.2947,"MEAN_ANOMALY":60.8845,"EPHEMERIS_TYPE":0,"CLASSIFICATION_TYPE":"U","NORAD_CAT_ID":54742,"ELEMENT_SET_NO":999,"REV_AT_EPOCH":141,"BSTAR":0,"MEAN_MOTION_DOT":-1.87e-6,"MEAN_MOTION_DDOT":0},{"OBJECT_NAME":"METEOSAT-12 (MTG-I1)","OBJECT_ID":"2022-170C","EPOCH":"2023-04-26T17:58:07.350816","MEAN_MOTION":1.00271051,"ECCENTRICITY":0.0002975,"INCLINATION":0.6994,"RA_OF_ASC_NODE":305.9922,"ARG_OF_PERICENTER":103.023,"MEAN_ANOMALY":71.3736,"EPHEMERIS_TYPE":0,"CLASSIFICATION_TYPE":"U","NORAD_CAT_ID":54743,"ELEMENT_SET_NO":999,"REV_AT_EPOCH":147,"BSTAR":0,"MEAN_MOTION_DOT":-3.5e-7,"MEAN_MOTION_DDOT":0},{"OBJECT_NAME":"SHIJIAN-23 (SJ-23)","OBJECT_ID":"2023-002A","EPOCH":"2023-04-26T21:15:42.547104","MEAN_MOTION":1.0043311,"ECCENTRICITY":9.95e-5,"INCLINATION":0.7566,"RA_OF_ASC_NODE":93.2951,"ARG_OF_PERICENTER":231.728,"MEAN_ANOMALY":234.8195,"EPHEMERIS_TYPE":0,"CLASSIFICATION_TYPE":"U","NORAD_CAT_ID":55131,"ELEMENT_SET_NO":999,"REV_AT_EPOCH":100,"BSTAR":0,"MEAN_MOTION_DOT":1.52e-6,"MEAN_MOTION_DDOT":0},{"OBJECT_NAME":"USA 340","OBJECT_ID":"2022-144E","EPOCH":"2023-04-25T06:08:42.694944","MEAN_MOTION":0.99757205,"ECCENTRICITY":0.0003925,"INCLINATION":2.9537,"RA_OF_ASC_NODE":65.8448,"ARG_OF_PERICENTER":247.3153,"MEAN_ANOMALY":332.5395,"EPHEMERIS_TYPE":0,"CLASSIFICATION_TYPE":"U","NORAD_CAT_ID":55138,"ELEMENT_SET_NO":999,"REV_AT_EPOCH":27,"BSTAR":0,"MEAN_MOTION_DOT":-2.19e-6,"MEAN_MOTION_DDOT":0},{"OBJECT_NAME":"USA 342","OBJECT_ID":"2023-008A","EPOCH":"2023-04-23T14:00:14.013792","MEAN_MOTION":1.00273192,"ECCENTRICITY":2.41e-5,"INCLINATION":0.01,"RA_OF_ASC_NODE":241.2046,"ARG_OF_PERICENTER":78.9504,"MEAN_ANOMALY":330.7774,"EPHEMERIS_TYPE":0,"CLASSIFICATION_TYPE":"U","NORAD_CAT_ID":55263,"ELEMENT_SET_NO":999,"REV_AT_EPOCH":97,"BSTAR":0,"MEAN_MOTION_DOT":6.3e-7,"MEAN_MOTION_DDOT":0},{"OBJECT_NAME":"LDPE-3A","OBJECT_ID":"2023-008B","EPOCH":"2023-04-27T00:33:28.037952","MEAN_MOTION":0.99608333,"ECCENTRICITY":6.45e-5,"INCLINATION":0.1725,"RA_OF_ASC_NODE":83.9646,"ARG_OF_PERICENTER":299.3622,"MEAN_ANOMALY":134.8675,"EPHEMERIS_TYPE":0,"CLASSIFICATION_TYPE":"U","NORAD_CAT_ID":55264,"ELEMENT_SET_NO":999,"REV_AT_EPOCH":30,"BSTAR":0,"MEAN_MOTION_DOT":-2.19e-6,"MEAN_MOTION_DDOT":0},{"OBJECT_NAME":"ELEKTRO-L 4","OBJECT_ID":"2023-016A","EPOCH":"2023-04-25T22:42:06.694848","MEAN_MOTION":1.00271113,"ECCENTRICITY":0.0002196,"INCLINATION":0.3674,"RA_OF_ASC_NODE":289.2773,"ARG_OF_PERICENTER":48.2116,"MEAN_ANOMALY":22.4993,"EPHEMERIS_TYPE":0,"CLASSIFICATION_TYPE":"U","NORAD_CAT_ID":55506,"ELEMENT_SET_NO":999,"REV_AT_EPOCH":81,"BSTAR":0,"MEAN_MOTION_DOT":-6.2e-7,"MEAN_MOTION_DDOT":0},{"OBJECT_NAME":"CHINASAT 26 (ZX 26)","OBJECT_ID":"2023-023A","EPOCH":"2023-04-26T20:18:17.443872","MEAN_MOTION":1.00273583,"ECCENTRICITY":0.0003674,"INCLINATION":0.0882,"RA_OF_ASC_NODE":78.7292,"ARG_OF_PERICENTER":349.3472,"MEAN_ANOMALY":216.1891,"EPHEMERIS_TYPE":0,"CLASSIFICATION_TYPE":"U","NORAD_CAT_ID":55686,"ELEMENT_SET_NO":999,"REV_AT_EPOCH":73,"BSTAR":0,"MEAN_MOTION_DOT":-3.56e-6,"MEAN_MOTION_DDOT":0},{"OBJECT_NAME":"LUCH-5X (OLYMP-K 2)","OBJECT_ID":"2023-031A","EPOCH":"2023-04-26T22:29:42.662976","MEAN_MOTION":1.00272408,"ECCENTRICITY":5.2e-5,"INCLINATION":0.0451,"RA_OF_ASC_NODE":19.2037,"ARG_OF_PERICENTER":169.138,"MEAN_ANOMALY":61.7373,"EPHEMERIS_TYPE":0,"CLASSIFICATION_TYPE":"U","NORAD_CAT_ID":55841,"ELEMENT_SET_NO":999,"REV_AT_EPOCH":45,"BSTAR":0,"MEAN_MOTION_DOT":6.2e-7,"MEAN_MOTION_DDOT":0},{"OBJECT_NAME":"GAOFEN 13-02","OBJECT_ID":"2023-036A","EPOCH":"2023-04-26T20:24:26.465184","MEAN_MOTION":1.00274471,"ECCENTRICITY":0.0002211,"INCLINATION":2.9676,"RA_OF_ASC_NODE":300.87,"ARG_OF_PERICENTER":304.1757,"MEAN_ANOMALY":62.3268,"EPHEMERIS_TYPE":0,"CLASSIFICATION_TYPE":"U","NORAD_CAT_ID":55912,"ELEMENT_SET_NO":999,"REV_AT_EPOCH":59,"BSTAR":0,"MEAN_MOTION_DOT":-2.36e-6,"MEAN_MOTION_DDOT":0},{"OBJECT_NAME":"SES-18","OBJECT_ID":"2023-038A","EPOCH":"2023-04-27T13:07:26.850720","MEAN_MOTION":1.00420089,"ECCENTRICITY":0.000922,"INCLINATION":0.0701,"RA_OF_ASC_NODE":269.4022,"ARG_OF_PERICENTER":54.4815,"MEAN_ANOMALY":307.2514,"EPHEMERIS_TYPE":0,"CLASSIFICATION_TYPE":"U","NORAD_CAT_ID":55970,"ELEMENT_SET_NO":999,"REV_AT_EPOCH":61,"BSTAR":0,"MEAN_MOTION_DOT":9.8e-7,"MEAN_MOTION_DDOT":0},{"OBJECT_NAME":"SES-19","OBJECT_ID":"2023-038B","EPOCH":"2023-04-26T17:18:12.481056","MEAN_MOTION":1.00275138,"ECCENTRICITY":4.97e-5,"INCLINATION":0.0301,"RA_OF_ASC_NODE":275.8614,"ARG_OF_PERICENTER":0.3192,"MEAN_ANOMALY":55.0744,"EPHEMERIS_TYPE":0,"CLASSIFICATION_TYPE":"U","NORAD_CAT_ID":55971,"ELEMENT_SET_NO":999,"REV_AT_EPOCH":57,"BSTAR":0,"MEAN_MOTION_DOT":1.15e-6,"MEAN_MOTION_DDOT":0}]
